start=new Date('2022-07-10T00:00:00.000Z').valueOf();
sats=[{"NORAD_CAT_ID":"45762","ELEMENT_SET_NO":"999","TLE_LINE1":"1 45762U 20038AJ  22190.74507564  .00001334  00000-0  10345-3 0  9996","MEAN_MOTION_DDOT":"0.0000000000000","RCS_SIZE":"LARGE","COUNTRY_CODE":"US","MEAN_MOTION":"15.08257073","FILE":"3510681","MEAN_ANOMALY":"303.7281","MEAN_ELEMENT_THEORY":"SGP4","ECCENTRICITY":"0.00017850","SITE":"AFETR","OBJECT_ID":"2020-038AJ","OBJECT_NAME":"STARLINK-1499","OBJECT_TYPE":"PAYLOAD","TIME_SYSTEM":"UTC","REV_AT_EPOCH":"11468","CENTER_NAME":"EARTH","PERIAPSIS":"540.293","APOAPSIS":"542.763","REF_FRAME":"TEME","PERIOD":"95.474","EPHEMERIS_TYPE":"0","INCLINATION":"53.0547","TLE_LINE2":"2 45762  53.0547 106.6618 0001785  56.3878 303.7281 15.08257073114688","EPOCH":"2022-07-09T17:52:54.535296","GP_ID":"207782535","ARG_OF_PERICENTER":"56.3878","SEMIMAJOR_AXIS":"6919.663","LAUNCH_DATE":"2020-06-13","CLASSIFICATION_TYPE":"U","MEAN_MOTION_DOT":"0.00001334","RA_OF_ASC_NODE":"106.6618","DECAY_DATE":null,"BSTAR":"0.00010345000000"},{"MEAN_MOTION":"15.88478717","COUNTRY_CODE":"US","MEAN_ANOMALY":"313.0855","FILE":"3510681","TLE_LINE1":"1 45763U 20038AK  22190.69373574  .00107136  00000-0  37442-3 0  9997","RCS_SIZE":"LARGE","MEAN_MOTION_DDOT":"0.0000000000000","ELEMENT_SET_NO":"999","NORAD_CAT_ID":"45763","OBJECT_NAME":"STARLINK-1501","TIME_SYSTEM":"UTC","OBJECT_TYPE":"PAYLOAD","SITE":"AFETR","OBJECT_ID":"2020-038AK","ECCENTRICITY":"0.00069250","MEAN_ELEMENT_THEORY":"SGP4","GP_ID":"207781284","ARG_OF_PERICENTER":"47.0749","EPHEMERIS_TYPE":"0","PERIOD":"90.653","EPOCH":"2022-07-09T16:38:58.767936","TLE_LINE2":"2 45763  53.0406 285.8390 0006925  47.0749 313.0855 15.88478717117395","INCLINATION":"53.0406","REF_FRAME":"TEME","APOAPSIS":"311.179","CENTER_NAME":"EARTH","REV_AT_EPOCH":"11739","PERIAPSIS":"301.920","DECAY_DATE":null,"BSTAR":"0.00037442000000","RA_OF_ASC_NODE":"285.8390","CLASSIFICATION_TYPE":"U","MEAN_MOTION_DOT":"0.00107136","SEMIMAJOR_AXIS":"6684.684","LAUNCH_DATE":"2020-06-13"},{"SEMIMAJOR_AXIS":"6925.383","LAUNCH_DATE":"2020-06-13","CLASSIFICATION_TYPE":"U","MEAN_MOTION_DOT":"-0.00000976","RA_OF_ASC_NODE":"107.4024","DECAY_DATE":null,"BSTAR":"-0.00004660600000","CENTER_NAME":"EARTH","REV_AT_EPOCH":"11467","PERIAPSIS":"545.968","APOAPSIS":"548.529","REF_FRAME":"TEME","PERIOD":"95.593","EPHEMERIS_TYPE":"0","EPOCH":"2022-07-09T17:46:18.936480","TLE_LINE2":"2 45764  53.0550 107.4024 0001849  70.6013 289.5176 15.06388713114672","INCLINATION":"53.0550","GP_ID":"207781533","ARG_OF_PERICENTER":"70.6013","MEAN_ELEMENT_THEORY":"SGP4","ECCENTRICITY":"0.00018490","SITE":"AFETR","OBJECT_ID":"2020-038AL","OBJECT_NAME":"STARLINK-1502","TIME_SYSTEM":"UTC","OBJECT_TYPE":"PAYLOAD","NORAD_CAT_ID":"45764","ELEMENT_SET_NO":"999","TLE_LINE1":"1 45764U 20038AL  22190.74049695 -.00000976  00000-0 -46606-4 0  9997","RCS_SIZE":"LARGE","MEAN_MOTION_DDOT":"0.0000000000000","MEAN_MOTION":"15.06388713","COUNTRY_CODE":"US","MEAN_ANOMALY":"289.5176","FILE":"3510681"},{"PERIOD":"95.594","EPHEMERIS_TYPE":"0","EPOCH":"2022-07-09T17:30:24.458400","INCLINATION":"53.0531","TLE_LINE2":"2 45766  53.0531 107.4396 0001867  62.0923 298.0255 15.06372733114656","GP_ID":"207781785","ARG_OF_PERICENTER":"62.0923","CENTER_NAME":"EARTH","REV_AT_EPOCH":"11465","PERIAPSIS":"546.004","APOAPSIS":"548.590","REF_FRAME":"TEME","RA_OF_ASC_NODE":"107.4396","DECAY_DATE":null,"BSTAR":"-0.00054406000000","LAUNCH_DATE":"2020-06-13","SEMIMAJOR_AXIS":"6925.432","CLASSIFICATION_TYPE":"U","MEAN_MOTION_DOT":"-0.00008370","TLE_LINE1":"1 45766U 20038AN  22190.72944975 -.00008370  00000-0 -54406-3 0  9994","RCS_SIZE":"LARGE","MEAN_MOTION_DDOT":"0.0000000000000","COUNTRY_CODE":"US","MEAN_MOTION":"15.06372733","MEAN_ANOMALY":"298.0255","FILE":"3510681","NORAD_CAT_ID":"45766","ELEMENT_SET_NO":"999","SITE":"AFETR","OBJECT_ID":"2020-038AN","OBJECT_NAME":"STARLINK-1509","TIME_SYSTEM":"UTC","OBJECT_TYPE":"PAYLOAD","MEAN_ELEMENT_THEORY":"SGP4","ECCENTRICITY":"0.00018670"},{"SEMIMAJOR_AXIS":"6925.402","LAUNCH_DATE":"2020-06-13","MEAN_MOTION_DOT":"-0.00014399","CLASSIFICATION_TYPE":"U","RA_OF_ASC_NODE":"107.1921","BSTAR":"-0.00095009000000","DECAY_DATE":null,"PERIAPSIS":"545.900","CENTER_NAME":"EARTH","REV_AT_EPOCH":"11466","APOAPSIS":"548.635","REF_FRAME":"TEME","EPOCH":"2022-07-09T18:55:18.242112","TLE_LINE2":"2 45767  53.0544 107.1921 0001974  75.8136 284.3072 15.06382418114666","INCLINATION":"53.0544","PERIOD":"95.593","EPHEMERIS_TYPE":"0","ARG_OF_PERICENTER":"75.8136","GP_ID":"207782036","MEAN_ELEMENT_THEORY":"SGP4","ECCENTRICITY":"0.00019740","OBJECT_ID":"2020-038AP","SITE":"AFETR","TIME_SYSTEM":"UTC","OBJECT_TYPE":"PAYLOAD","OBJECT_NAME":"STARLINK-1511","NORAD_CAT_ID":"45767","ELEMENT_SET_NO":"999","RCS_SIZE":"LARGE","MEAN_MOTION_DDOT":"0.0000000000000","TLE_LINE1":"1 45767U 20038AP  22190.78840558 -.00014399  00000-0 -95009-3 0  9995","MEAN_ANOMALY":"284.3072","FILE":"3510681","MEAN_MOTION":"15.06382418","COUNTRY_CODE":"US"},{"MEAN_MOTION_DDOT":"0.0000000000000","RCS_SIZE":"LARGE","TLE_LINE1":"1 45768U 20038AQ  22190.76999231 -.00002925  00000-0 -17764-3 0  9991","FILE":"3510681","MEAN_ANOMALY":"282.9998","MEAN_MOTION":"15.06381520","COUNTRY_CODE":"US","NORAD_CAT_ID":"45768","ELEMENT_SET_NO":"999","SITE":"AFETR","OBJECT_ID":"2020-038AQ","OBJECT_TYPE":"PAYLOAD","TIME_SYSTEM":"UTC","OBJECT_NAME":"STARLINK-1521","MEAN_ELEMENT_THEORY":"SGP4","ECCENTRICITY":"0.00015960","INCLINATION":"53.0534","TLE_LINE2":"2 45768  53.0534 107.2598 0001596  77.1169 282.9998 15.06381520114673","EPOCH":"2022-07-09T18:28:47.335584","EPHEMERIS_TYPE":"0","PERIOD":"95.593","ARG_OF_PERICENTER":"77.1169","GP_ID":"207780785","PERIAPSIS":"546.165","REV_AT_EPOCH":"11467","CENTER_NAME":"EARTH","REF_FRAME":"TEME","APOAPSIS":"548.375","RA_OF_ASC_NODE":"107.2598","BSTAR":"-0.00017764000000","DECAY_DATE":null,"SEMIMAJOR_AXIS":"6925.405","LAUNCH_DATE":"2020-06-13","MEAN_MOTION_DOT":"-0.00002925","CLASSIFICATION_TYPE":"U"},{"MEAN_MOTION":"15.06404599","COUNTRY_CODE":"US","MEAN_ANOMALY":"286.4516","FILE":"3510398","TLE_LINE1":"1 45769U 20038AR  22190.52854622 -.00001783  00000-0 -10079-3 0  9993","RCS_SIZE":"LARGE","MEAN_MOTION_DDOT":"0.0000000000000","ELEMENT_SET_NO":"999","NORAD_CAT_ID":"45769","OBJECT_NAME":"STARLINK-1459","TIME_SYSTEM":"UTC","OBJECT_TYPE":"PAYLOAD","OBJECT_ID":"2020-038AR","SITE":"AFETR","ECCENTRICITY":"0.00020520","MEAN_ELEMENT_THEORY":"SGP4","GP_ID":"207705342","ARG_OF_PERICENTER":"73.6699","PERIOD":"95.592","EPHEMERIS_TYPE":"0","EPOCH":"2022-07-09T12:41:06.393408","TLE_LINE2":"2 45769  53.0544 128.3615 0002052  73.6699 286.4516 15.06404599115461","INCLINATION":"53.0544","REF_FRAME":"TEME","APOAPSIS":"548.621","CENTER_NAME":"EARTH","REV_AT_EPOCH":"11546","PERIAPSIS":"545.778","DECAY_DATE":null,"BSTAR":"-0.00010079000000","RA_OF_ASC_NODE":"128.3615","CLASSIFICATION_TYPE":"U","MEAN_MOTION_DOT":"-0.00001783","SEMIMAJOR_AXIS":"6925.334","LAUNCH_DATE":"2020-06-13"},{"REF_FRAME":"TEME","APOAPSIS":"548.381","PERIAPSIS":"546.046","CENTER_NAME":"EARTH","REV_AT_EPOCH":"11493","ARG_OF_PERICENTER":"55.7512","GP_ID":"207782285","EPOCH":"2022-07-09T17:31:40.373760","TLE_LINE2":"2 45770  53.0551  87.4401 0001686  55.7512 304.3636 15.06399993114931","INCLINATION":"53.0551","EPHEMERIS_TYPE":"0","PERIOD":"95.592","MEAN_MOTION_DOT":"-0.00004666","CLASSIFICATION_TYPE":"U","LAUNCH_DATE":"2020-06-13","SEMIMAJOR_AXIS":"6925.349","BSTAR":"-0.00029455000000","DECAY_DATE":null,"RA_OF_ASC_NODE":"87.4401","ELEMENT_SET_NO":"999","NORAD_CAT_ID":"45770","MEAN_ANOMALY":"304.3636","FILE":"3510681","COUNTRY_CODE":"US","MEAN_MOTION":"15.06399993","RCS_SIZE":"LARGE","MEAN_MOTION_DDOT":"0.0000000000000","TLE_LINE1":"1 45770U 20038AS  22190.73032840 -.00004666  00000-0 -29455-3 0  9999","ECCENTRICITY":"0.00016860","MEAN_ELEMENT_THEORY":"SGP4","TIME_SYSTEM":"UTC","OBJECT_TYPE":"PAYLOAD","OBJECT_NAME":"STARLINK-1462","SITE":"AFETR","OBJECT_ID":"2020-038AS"},{"REF_FRAME":"TEME","APOAPSIS":"548.590","PERIAPSIS":"545.748","CENTER_NAME":"EARTH","REV_AT_EPOCH":"11492","ARG_OF_PERICENTER":"82.4135","GP_ID":"207782536","EPOCH":"2022-07-09T15:46:52.466880","INCLINATION":"53.0547","TLE_LINE2":"2 45771  53.0547  87.7836 0002052  82.4135 277.7087 15.06414516114929","EPHEMERIS_TYPE":"0","PERIOD":"95.591","MEAN_MOTION_DOT":"0.00001279","CLASSIFICATION_TYPE":"U","SEMIMAJOR_AXIS":"6925.304","LAUNCH_DATE":"2020-06-13","BSTAR":"0.00010471000000","DECAY_DATE":null,"RA_OF_ASC_NODE":"87.7836","ELEMENT_SET_NO":"999","NORAD_CAT_ID":"45771","MEAN_ANOMALY":"277.7087","FILE":"3510681","MEAN_MOTION":"15.06414516","COUNTRY_CODE":"US","RCS_SIZE":"LARGE","MEAN_MOTION_DDOT":"0.0000000000000","TLE_LINE1":"1 45771U 20038AT  22190.65755170  .00001279  00000-0  10471-3 0  9992","ECCENTRICITY":"0.00020520","MEAN_ELEMENT_THEORY":"SGP4","TIME_SYSTEM":"UTC","OBJECT_TYPE":"PAYLOAD","OBJECT_NAME":"STARLINK-1463","SITE":"AFETR","OBJECT_ID":"2020-038AT"},{"RA_OF_ASC_NODE":"87.5085","BSTAR":"0.00008572000000","DECAY_DATE":null,"SEMIMAJOR_AXIS":"6925.368","LAUNCH_DATE":"2020-06-13","MEAN_MOTION_DOT":"0.00000995","CLASSIFICATION_TYPE":"U","EPOCH":"2022-07-09T17:06:31.570560","INCLINATION":"53.0556","TLE_LINE2":"2 45772  53.0556  87.5085 0001396  87.7525 272.3624 15.06393517114942","PERIOD":"95.593","EPHEMERIS_TYPE":"0","ARG_OF_PERICENTER":"87.7525","GP_ID":"207781285","PERIAPSIS":"546.267","CENTER_NAME":"EARTH","REV_AT_EPOCH":"11494","APOAPSIS":"548.200","REF_FRAME":"TEME","SITE":"AFETR","OBJECT_ID":"2020-038AU","TIME_SYSTEM":"UTC","OBJECT_TYPE":"PAYLOAD","OBJECT_NAME":"STARLINK-1470","MEAN_ELEMENT_THEORY":"SGP4","ECCENTRICITY":"0.00013960","RCS_SIZE":"LARGE","MEAN_MOTION_DDOT":"0.0000000000000","TLE_LINE1":"1 45772U 20038AU  22190.71286540  .00000995  00000-0  85720-4 0  9994","MEAN_ANOMALY":"272.3624","FILE":"3510681","MEAN_MOTION":"15.06393517","COUNTRY_CODE":"US","NORAD_CAT_ID":"45772","ELEMENT_SET_NO":"999"}];
